{
    "links": {
        "self": "http://www.neowsapp.com/rest/v1/neo/3582520?api_key=iIulBulltgU6a56xZRHN4H3l9WmuAYTsLGpBGhQ2"
    },
    "id": "3582520",
    "neo_reference_id": "3582520",
    "name": "(2011 UZ63)",
    "designation": "2011 UZ63",
    "nasa_jpl_url": "http://ssd.jpl.nasa.gov/sbdb.cgi?sstr=3582520",
    "absolute_magnitude_h": 22.4,
    "estimated_diameter": {
        "kilometers": {
            "estimated_diameter_min": 0.0880146521,
            "estimated_diameter_max": 0.1968067451
        },
        "meters": {
            "estimated_diameter_min": 88.0146520901,
            "estimated_diameter_max": 196.8067450894
        },
        "miles": {
            "estimated_diameter_min": 0.0546897524,
            "estimated_diameter_max": 0.122290004
        },
        "feet": {
            "estimated_diameter_min": 288.7619911632,
            "estimated_diameter_max": 645.6914415591
        }
    },
    "is_potentially_hazardous_asteroid": false,
    "close_approach_data": [
        {
            "close_approach_date": "1992-10-14",
            "close_approach_date_full": "1992-Oct-14 06:16",
            "epoch_date_close_approach": 719043360000,
            "relative_velocity": {
                "kilometers_per_second": "11.6968584956",
                "kilometers_per_hour": "42108.6905842288",
                "miles_per_hour": "26164.7027688504"
            },
            "miss_distance": {
                "astronomical": "0.415318348",
                "lunar": "161.558837372",
                "kilometers": "62130740.23271876",
                "miles": "38606251.784928488"
            },
            "orbiting_body": "Earth"
        },
        {
            "close_approach_date": "2011-10-23",
            "close_approach_date_full": "2011-Oct-23 20:54",
            "epoch_date_close_approach": 1319403240000,
            "relative_velocity": {
                "kilometers_per_second": "10.9121248886",
                "kilometers_per_hour": "39283.6495990406",
                "miles_per_hour": "24409.3321633594"
            },
            "miss_distance": {
                "astronomical": "0.2758939316",
                "lunar": "107.3227393924",
                "kilometers": "41273144.513285692",
                "miles": "25645942.7823868696"
            },
            "orbiting_body": "Earth"
        }
    ],
    "orbital_data": {
        "orbit_id": "11",
        "orbit_determination_date": "2017-04-06 08:52:19",
        "first_observation_date": "2011-10-21",
        "last_observation_date": "2011-11-17",
        "data_arc_in_days": 27,
        "observations_used": 26,
        "orbit_uncertainty": "7",
        "minimum_orbit_intersection": ".275465",
        "jupiter_tisserand_invariant": "3.975",
        "epoch_osculation": "2459000.5",
        "eccentricity": ".2872419647402936",
        "semi_major_axis": "1.776758671981689",
        "inclination": "20.84417770428256",
        "ascending_node_longitude": "214.8494966274658",
        "orbital_period": "865.049765223437",
        "perihelion_distance": "1.266399020172314",
        "perihelion_argument": "169.8656444844405",
        "aphelion_distance": "2.287118323791065",
        "perihelion_time": "2459313.847699811016",
        "mean_anomaly": "229.5968989682011",
        "mean_motion": ".4161610285010761",
        "equinox": "J2000",
        "orbit_class": {
            "orbit_class_type": "AMO",
            "orbit_class_description": "Near-Earth asteroid orbits similar to that of 1221 Amor",
            "orbit_class_range": "1.017 AU < q (perihelion) < 1.3 AU"
        }
    },
    "is_sentry_object": false
}